{"spkid": "20369057", "covariance": {"epoch": "2455436.5", "data": [["7.140923419926874E-15", "-1.165924917764669E-14", "-5.984167923697604E-13", "-1.556074998426903E-13", "-7.825252768531443E-13", "-9.156267701795006E-14"], ["-1.165924917764669E-14", "1.904911589474554E-14", "9.689374731306276E-13", "2.61805203914567E-13", "1.263386936333758E-12", "1.507858587118993E-13"], ["-5.984167923697604E-13", "9.689374731306276E-13", "5.276315330910656E-10", "-4.421128833790825E-11", "3.384398520385688E-10", "1.417208972982235E-11"], ["-1.556074998426903E-13", "2.61805203914567E-13", "-4.421128833790825E-11", "2.056472684893327E-9", "-2.051724052373234E-9", "3.287721718743479E-11"], ["-7.825252768531443E-13", "1.263386936333758E-12", "3.384398520385688E-10", "-2.051724052373234E-9", "2.283697588463925E-9", "-1.751535761177173E-11"], ["-9.156267701795006E-14", "1.507858587118993E-13", "1.417208972982235E-11", "3.287721718743479E-11", "-1.751535761177173E-11", "1.460731986278853E-10"]], "elements": [{"title": "eccentricity", "value": ".6148813368716433", "units": null, "name": "e", "sigma": 8.45039846393463e-08, "label": "e"}, {"label": "q", "name": "q", "sigma": 1.38018534605848e-07, "value": ".5988118998558866", "title": "perihelion distance", "units": "au"}, {"label": "tp", "units": "TDB", "title": "time of perihelion passage", "value": "2455177.024585790170", "sigma": 2.29702314548867e-05, "name": "tp"}, {"label": "node", "units": "deg", "value": "345.9224186959551", "title": "longitude of the ascending node", "sigma": 4.53483482046847e-05, "name": "om"}, {"label": "peri", "units": "deg", "value": "80.64610240538804", "title": "argument of perihelion", "name": "w", "sigma": 4.77880485944334e-05}, {"label": "i", "units": "deg", "value": "4.276332960469907", "title": "inclination", "sigma": 1.20860745748107e-05, "name": "i"}], "labels": ["e", "q", "tp", "node", "peri", "i"]}, "elements": [{"label": "e", "units": null, "title": "eccentricity", "value": ".6149948702271902", "name": "e", "sigma": "8.4874E-8"}, {"label": "a", "title": "semi-major axis", "value": "1.55474023299341", "units": "au", "sigma": "1.6639E-8", "name": "a"}, {"name": "q", "sigma": "1.3766E-7", "value": ".5985829651666362", "title": "perihelion distance", "units": "au", "label": "q"}, {"sigma": "1.2079E-5", "name": "i", "value": "4.268571046967319", "title": "inclination; angle with respect to x-y ecliptic plane", "units": "deg", "label": "i"}, {"label": "node", "sigma": "4.5457E-5", "name": "om", "value": "345.6070387985506", "title": "longitude of the ascending node", "units": "deg"}, {"label": "peri", "units": "deg", "title": "argument of perihelion", "value": "81.02938062088003", "name": "w", "sigma": "4.7915E-5"}, {"units": "deg", "title": "mean anomaly", "value": "182.3200180670148", "name": "ma", "sigma": "5.5924E-5", "label": "M"}, {"label": "tp", "name": "tp", "sigma": ".00011547", "value": "2461549.979079636830", "title": "time of perihelion passage", "units": "TDB"}, {"label": "period", "name": "per", "sigma": "1.1367E-5", "value": "708.0846547852018", "title": "sidereal orbital period", "units": "d"}, {"value": ".5084137857912009", "title": "mean motion", "units": "deg/d", "sigma": "8.1617E-9", "name": "n", "label": "n"}, {"value": "2.510897500820183", "title": "aphelion distance", "units": "au", "name": "ad", "sigma": "2.6872E-8", "label": "Q"}], "epoch": "2461200.5"}